[
    {
        "id": 6975,
        "name": "STARLINK-33845",
        "distance_km": 495.72,
        "elevation_deg": 85.55,
        "visible": true,
        "latitude": 49.723060257866706,
        "longitude": 18.015369607049553,
        "datetime_utc": "2025-09-01T22:53:18.643000",
        "tle": {
            "line-1": "1 63495U 25071C   25244.15635924  .00029943  00000+0  10186-2 0  9998",
            "line-2": "2 63495  53.1599 300.1384 0002055  88.9803 271.1433 15.30214244 23730"
        }
    },
    {
        "id": 6982,
        "name": "STARLINK-33818",
        "distance_km": 423.98,
        "elevation_deg": 86.19,
        "visible": true,
        "latitude": 47.2608462199813,
        "longitude": 10.047456759425216,
        "datetime_utc": "2025-09-01T22:53:18.643000",
        "tle": {
            "line-1": "1 63502U 25071K   25244.15741434  .00035902  00000+0  12180-2 0  9999",
            "line-2": "2 63502  53.1592 300.1418 0001622  86.6421 273.4765 15.30211628 23758"
        }
    },
    {
        "id": 7569,
        "name": "STARLINK-34352",
        "distance_km": 312.19,
        "elevation_deg": 87.2,
        "visible": true,
        "latitude": 52.16902381202096,
        "longitude": 7.250481846654649,
        "datetime_utc": "2025-09-01T22:53:18.643000",
        "tle": {
            "line-1": "1 64257U 25120B   25244.28964531  .00054350  00000+0  13580-2 0  9994",
            "line-2": "2 64257  53.1585 276.7617 0001767  84.5204 275.6003 15.39643681 14861"
        }
    }
]